55817,ONEWEB-0656,2023,109.03,148.0,+,87.93,Active,1,LEO,USA,UK,Commercial,Communications,Falcon,1 55817U 23029X   24330.57361736 -.00000153  00000+0 -40856-3 0  9998,2 55817  87.9280  27.5376 0002116 117.3141 242.8208 13.20770619 86095,13.20770619,0.0002116,LEO
55818,ONEWEB-0657,2023,109.11,148.0,+,87.92,Active,1,LEO,USA,UK,Commercial,Communications,Falcon,1 55818U 23029Y   24330.82612441  .00000093  00000+0  20021-3 0  9992,2 55818  87.9195  58.0031 0001458 128.6261 231.5002 13.19723782 83949,13.19723782,0.0001458,LEO
55819,ONEWEB-0658,2023,109.11,148.0,+,87.92,Active,1,LEO,USA,UK,Commercial,Communications,Falcon,1 55819U 23029Z   24330.29065664  .00000098  00000+0  21236-3 0  9997,2 55819  87.9194  58.0437 0001411  80.7078 279.4214 13.19724249 83880,13.19724249,0.0001411,LEO
55820,ONEWEB-0660,2023,109.55,148.0,+,87.9,Active,1,LEO,USA,UK,Commercial,Communications,Falcon,1 55820U 23029AA  24331.44023108  .00000009  00000+0 -95500-5 0  9994,2 55820  87.9026  42.5793 0001877  89.3878 270.7467 13.14501996 85522,13.14501996,0.0001877,LEO
55821,ONEWEB-0661,2023,109.55,148.0,+,87.9,Active,1,LEO,USA,UK,Commercial,Communications,Falcon,1 55821U 23029AB  24330.63782177  .00000051  00000+0  10385-3 0  9995,2 55821  87.9030  42.8069 0002082  91.0735 269.0633 13.14501865 84696,13.14501865,0.0002082,LEO
55822,ONEWEB-0662,2023,109.55,148.0,+,87.9,Active,1,LEO,USA,UK,Commercial,Communications,Falcon,1 55822U 23029AC  24331.43388047  .00000238  00000+0  60617-3 0  9993,2 55822  87.9031  42.6562 0001799  89.0097 271.1239 13.14501449 85556,13.14501449,0.0001799,LEO
55823,ONEWEB-0663,2023,109.02,148.0,+,87.93,Active,1,LEO,USA,UK,Commercial,Communications,Falcon,1 55823U 23029AD  24330.18447724  .00000096  00000+0  20334-3 0  9997,2 55823  87.9290  27.6756 0001904  85.2866 274.8484 13.20814669 86036,13.20814669,0.0001904,LEO
55824,ONEWEB-0664,2023,109.03,148.0,+,87.93,Active,1,LEO,USA,UK,Commercial,Communications,Falcon,1 55824U 23029AE  24330.18221770  .00000118  00000+0  25795-3 0  9990,2 55824  87.9277  27.6897 0002250  89.2409 270.8983 13.20771287 86038,13.20771287,0.000225,LEO
